GPS BIIF-4              
1 39166U 13023A   26063.98037619 -.00000016  00000+0  00000+0 0  9990
2 39166  54.5857 273.2171 0141620  49.9246 311.3385  2.00564217 93791
INSAT-3D                
1 39216U 13038B   26065.25041532 -.00000344  00000+0  00000+0 0  9997
2 39216   1.6601  83.8888 0001701 246.5341  53.1897  1.00272710 46041
GPS BIIF-5              
1 39533U 14008A   26064.47751616  .00000008  00000+0  00000+0 0  9997
2 39533  53.6378 153.5513 0082337 228.3363 130.9939  2.00553167 87604
LUCH 5V                 
1 39727U 14023A   26065.02984770 -.00000273  00000+0  00000+0 0  9995
2 39727   4.8790  70.7602 0003058 283.1507 275.3216  1.00271463 43324
GPS BIIF-6              
1 39741U 14026A   26064.75554898 -.00000099  00000+0  00000+0 0  9993
2 39741  56.5458 335.5470 0039849 324.6009  35.1717  2.00568639 86460
GPS BIIF-7              
1 40105U 14045A   26063.84593997  .00000005  00000+0  00000+0 0  9998
2 40105  55.2815  92.6206 0031508 120.4743 239.9033  2.00551558 83989
GSAT0201 (GALILEO 5)    
1 40128U 14050A   26062.23675925 -.00000027  00000+0  00000+0 0  9998
2 40128  48.9889 277.7718 1657553 175.2875 186.5034  1.85520013 76352
GSAT0202 (GALILEO 6)    
1 40129U 14050B   26064.64861088 -.00000037  00000+0  00000+0 0  9994
2 40129  49.0031 276.7577 1658853 176.1163 185.3582  1.85520801 78565
GPS BIIF-8              
1 40294U 14068A   26065.21974178 -.00000078  00000+0  00000+0 0  9990
2 40294  56.9208  34.9218 0062856  68.0586 292.5929  2.00569976 83146
GLONASS-K 2             
1 40315U 14075A   26060.84023701 -.00000015  00000+0  00000+0 0  9994
2 40315  63.6170 194.0851 0020735 205.7160 154.1408  2.13101099 87569
GPS BIIF-9              
1 40534U 15013A   26064.35398615  .00000005  00000+0  00000+0 0  9997
2 40534  53.1861 208.4703 0108751  39.7984 320.9422  2.00557561 79748
GSAT0203 (GALILEO 7)    
1 40544U 15017A   26058.52158611 -.00000103  00000+0  00000+0 0  9994
2 40544  56.8234 344.5881 0005161 295.0116  64.9415  1.70475495 67337
GSAT0204 (GALILEO 8)    
1 40545U 15017B   26058.19060141 -.00000102  00000+0  00000+0 0  9997
2 40545  56.8295 344.6151 0004389 286.3298  73.6287  1.70475370 30371
GPS BIIF-10             
1 40730U 15033A   26064.51449839 -.00000015  00000+0  00000+0 0  9992
2 40730  54.0638 271.3591 0114524  29.0017 331.6534  2.00561575 77916
METEOSAT-11 (MSG-4)     
1 40732U 15034A   26065.22684189  .00000057  00000+0  00000+0 0  9998
2 40732   2.9422  71.6698 0001806 270.7557 272.5461  1.00266672  6184
GSAT0205 (GALILEO 9)    
1 40889U 15045A   26043.95434207  .00000078  00000+0  00000+0 0  9996
2 40889  53.6403 225.6057 0359599  59.9658 303.5577  1.67410800 64211
GSAT0206 (GALILEO 10)   
1 40890U 15045B   26065.21845735  .00000020  00000+0  00000+0 0  9990
2 40890  54.9806 224.4444 0003724  50.3393 309.6334  1.70473773 65286
